{
  "type": "FeatureCollection",
  "features": [
    {
      "type": "Feature",
      "properties": {
        "id": "floor_3_unassigned",
        "display_name": "Floor 3",
        "area_type": "general",
        "floor_id": "floor_3",
        "priority": 0
      },
      "geometry": {
        "type": "Polygon",
        "coordinates": [
          [
            [-6.03, -3.67],
            [2.22, -3.67],
            [2.22, 4.23],
            [-6.03, 4.23],
            [-6.03, -3.67]
          ]
        ]
      }
    }
  ]
}
