{
  "type": "FeatureCollection",
  "features": [
    {
      "type": "Feature",
      "properties": {
        "id": "floor_1_unassigned",
        "display_name": "Floor 1 - 办公室",
        "area_type": "general",
        "floor_id": "floor_1",
        "priority": 0
      },
      "geometry": {
        "type": "Polygon",
        "coordinates": [
          [
            [-6.016, -3.720],
            [2.984, -3.720],
            [2.984, 13.230],
            [-6.016, 13.230],
            [-6.016, -3.720]
          ]
        ]
      }
    }
  ]
}
