{
  "type": "FeatureCollection",
  "features": [
    {
      "type": "Feature",
      "properties": {
        "id": "floor_4_unassigned",
        "display_name": "Floor 4",
        "area_type": "general",
        "floor_id": "floor_4",
        "priority": 0
      },
      "geometry": {
        "type": "Polygon",
        "coordinates": [
          [
            [-16.0, -4.02],
            [5.45, -4.02],
            [5.45, 9.53],
            [-16.0, 9.53],
            [-16.0, -4.02]
          ]
        ]
      }
    }
  ]
}
